NORAD_CAT_ID,OBJECT_NAME,OBJECT_TYPE,EPOCH,MEAN_MOTION,ECCENTRICITY,INCLINATION,RA_OF_ASC_NODE,ARG_OF_PERICENTER,MEAN_ANOMALY,BSTAR,MEAN_MOTION_DOT,MEAN_MOTION_DDOT,TLE_LINE0,TLE_LINE1,TLE_LINE2,SEMIMAJOR_AXIS,PERIOD,APOGEE,PERIGEE,DECAYED
53421.0,STARLINK-4545,PAYLOAD,2022-08-15 18:00:00,15.85704659,0.0019367999999999,53.2175,220.7539,52.3434,14.7395,-0.0051671999999999,-0.01151966,0.0,0 STARLINK-4545,1 53421U 22097AK  22227.75001157 -.01151966  00000-0 -51672-2 0  9990,2 53421  53.2175 220.7539 0019368  52.3434  14.7395 15.85704659  1309,6692.478,90.811,327.305,301.381,0.0
53421.0,STARLINK-4545,PAYLOAD,2022-08-16 06:00:02,15.84410848,0.0013987,53.2175,218.2371,48.7457,353.1782,-0.0056128,-0.01161423,0.0,0 STARLINK-4545,1 53421U 22097AK  22228.25002315 -.01161423  00000-0 -56128-2 0  9993,2 53421  53.2175 218.2371 0013987  48.7457 353.1782 15.84410848  1370,6696.121,90.886,327.3520000000001,308.62,0.0
53421.0,STARLINK-4545,PAYLOAD,2022-08-16 14:00:01,15.83548414,0.0010095,53.2173,216.5605,45.834,97.9046,-0.0059218999999999,-0.01189703,0.0,0 STARLINK-4545,1 53421U 22097AK  22228.58334491 -.01189703  00000-0 -59219-2 0  9997,2 53421  53.2173 216.5605 0010095  45.8340  97.9046 15.83548414  1304,6698.552,90.935,327.1790000000001,313.655,0.0
53421.0,STARLINK-4545,PAYLOAD,2022-08-16 22:00:00,15.82703477,0.0007382999999999,53.2173,214.8851,40.2673,204.3032,-0.0064018,-0.01226964,0.0,0 STARLINK-4545,1 53421U 22097AK  22228.91667824 -.01226964  00000-0 -64018-2 0  9997,2 53421  53.2173 214.8851 0007383  40.2673 204.3032 15.82703477  1302,6700.936,90.984,327.7480000000001,317.8540000000001,0.0
53421.0,STARLINK-4545,PAYLOAD,2022-08-17 14:00:01,15.80945868,0.0004027,53.2173,211.5452,11.0092,72.1172,-0.0067295,-0.01188558,0.0,0 STARLINK-4545,1 53421U 22097AK  22229.58334491 -.01188558  00000-0 -67295-2 0  9998,2 53421  53.2173 211.5452 0004027  11.0092  72.1172 15.80945868  1593,6705.901999999999,91.085,330.467,325.066,0.0
53421.0,STARLINK-4545,PAYLOAD,2022-08-18 08:00:01,15.789944,0.0003346,53.2182,207.7973,350.4168,41.0898,-0.007386,-0.01191151,0.0,0 STARLINK-4545,1 53421U 22097AK  22230.33334491 -.01191151  00000-0 -73860-2 0  9991,2 53421  53.2182 207.7973 0003346 350.4168  41.0898 15.78994400  1701,6711.426,91.197,335.536,331.045,0.0
53421.0,STARLINK-4545,PAYLOAD,2022-08-18 14:00:01,15.78344563,0.0003483,53.2175,206.5491,339.8009,33.3254,-0.0076086,-0.01191294,0.0,0 STARLINK-4545,1 53421U 22097AK  22230.58334491 -.01191294  00000-0 -76086-2 0  9999,2 53421  53.2175 206.5491 0003483 339.8009  33.3254 15.78344563  1307,6713.268,91.235,337.471,332.7940000000001,0.0
53421.0,STARLINK-4545,PAYLOAD,2022-08-18 22:00:00,15.7747823,0.0003746,53.2175,204.8867,2.594,105.1127,-0.0079208,-0.01192513,0.0,0 STARLINK-4545,1 53421U 22097AK  22230.91667824 -.01192513  00000-0 -79208-2 0  9999,2 53421  53.2175 204.8867 0003746   2.5940 105.1127 15.77478230  1805,6715.725,91.285,340.106,335.075,0.0
53421.0,STARLINK-4545,PAYLOAD,2022-08-19 14:00:01,15.75741943,7.04e-05,53.2174,201.5721,58.6277,235.112,-0.0085584,-0.01190573,0.0,0 STARLINK-4545,1 53421U 22097AK  22231.58334491 -.01190573  00000-0 -85584-2 0  9992,2 53421  53.2174 201.5721 0000704  58.6277 235.1120 15.75741943  1307,6720.658,91.386,342.996,342.05,0.0
53421.0,STARLINK-4545,PAYLOAD,2022-08-19 16:00:00,15.75526389,8.859999999999999e-05,53.2176,201.1577,67.1303,339.5699,-0.0086566,-0.01192625,0.0,0 STARLINK-4545,1 53421U 22097AK  22231.66667824 -.01192625  00000-0 -86566-2 0  9991,2 53421  53.2176 201.1577 0000886  67.1303 339.5699 15.75526389  1912,6721.271,91.398,343.731,342.54,0.0
53421.0,STARLINK-4545,PAYLOAD,2022-08-19 22:00:00,15.74876673,0.0001094999999999,53.2177,199.9164,65.7175,319.4728,-0.0089276,-0.0119502,0.0,0 STARLINK-4545,1 53421U 22097AK  22231.91667824 -.01195020  00000-0 -89276-2 0  9992,2 53421  53.2177 199.9164 0001095  65.7175 319.4728 15.74876673  1309,6723.119000000002,91.436,345.72,344.24800000000016,0.0
53421.0,STARLINK-4545,PAYLOAD,2022-08-20 14:00:01,15.7321754,0.000123,53.2174,196.6142,69.2972,135.745,-0.00017634,-0.00025312,0.0,0 STARLINK-4545,1 53421U 22097AK  22232.58334491 -.00025312  00000-0 -17634-3 0  9992,2 53421  53.2174 196.6142 0001230  69.2972 135.7450 15.73217540  2067,6727.845,91.532,350.538,348.8830000000001,0.0
53421.0,STARLINK-4545,PAYLOAD,2022-08-20 22:00:00,15.73203907,0.0001164,53.2175,194.9637,68.9548,225.0267,1.3999e-05,1.346e-05,0.0,0 STARLINK-4545,1 53421U 22097AK  22232.91667824  .00001346  00000-0  13999-4 0  9998,2 53421  53.2175 194.9637 0001164  68.9548 225.0267 15.73203907  1306,6727.884,91.533,350.532,348.966,0.0
53421.0,STARLINK-4545,PAYLOAD,2022-08-21 06:00:00,15.73240352,0.0001261,53.2196,193.3185,69.7001,313.2557,-0.00040868,-0.00057682,0.0,0 STARLINK-4545,1 53421U 22097AK  22233.25001157 -.00057682  00000-0 -40868-3 0  9997,2 53421  53.2196 193.3185 0001261  69.7001 313.2557 15.73240352  2163,6727.78,91.531,350.494,348.797,0.0
53421.0,STARLINK-4545,PAYLOAD,2022-08-21 14:00:01,15.73221766,0.0001153,53.2197,191.6676,73.023,38.9079,-0.00067355,-0.00094182,0.0,0 STARLINK-4545,1 53421U 22097AK  22233.58334491 -.00094182  00000-0 -67355-3 0  9999,2 53421  53.2197 191.6676 0001153  73.0230  38.9079 15.73221766  1305,6727.833000000001,91.532,350.474,348.922,0.0
53421.0,STARLINK-4545,PAYLOAD,2022-08-21 22:00:00,15.73163775,0.0001327,53.22,190.0177,82.6802,118.1474,0.00030449,0.00042262,0.0,0 STARLINK-4545,1 53421U 22097AK  22233.91667824  .00042262  00000-0  30449-3 0  9999,2 53421  53.2200 190.0177 0001327  82.6802 118.1474 15.73163775  2275,6727.998000000001,91.535,350.756,348.971,0.0
53421.0,STARLINK-4545,PAYLOAD,2022-08-22 12:00:00,15.73224727,0.0001289,53.2192,187.1324,74.1419,192.2672,7.682899999999999e-06,4.59e-06,0.0,0 STARLINK-4545,1 53421U 22097AK  22234.50001157  .00000459  00000-0  76829-5 0  9992,2 53421  53.2192 187.1324 0001289  74.1419 192.2672 15.73224727  1304,6727.825,91.532,350.557,348.82199999999995,0.0
53421.0,STARLINK-4545,PAYLOAD,2022-08-22 22:00:00,15.7323688,0.0001134,53.2197,185.0698,85.4239,22.1766,-0.00031106,-0.00044114,0.0,0 STARLINK-4545,1 53421U 22097AK  22234.91667824 -.00044114  00000-0 -31106-3 0  9991,2 53421  53.2197 185.0698 0001134  85.4239  22.1766 15.73236880  2437,6727.79,91.531,350.418,348.892,0.0
53421.0,STARLINK-4545,PAYLOAD,2022-08-23 14:00:01,15.73219011,0.0001200999999999,53.2201,181.7714,79.3753,206.105,-0.00048416,-0.00068075,0.0,0 STARLINK-4545,1 53421U 22097AK  22235.58334491 -.00068075  00000-0 -48416-3 0  9990,2 53421  53.2201 181.7714 0001201  79.3753 206.1050 15.73219011  2531,6727.840999999999,91.532,350.514,348.898,0.0
53421.0,STARLINK-4545,PAYLOAD,2022-08-23 20:00:01,15.73167672,0.0001319,53.2203,180.5336,85.1565,177.0199,0.00041999,0.00058653,0.0,0 STARLINK-4545,1 53421U 22097AK  22235.83334491  .00058653  00000-0  41999-3 0  9996,2 53421  53.2203 180.5336 0001319  85.1565 177.0199 15.73167672  2575,6727.986999999999,91.535,350.74,348.965,0.0
53421.0,STARLINK-4545,PAYLOAD,2022-08-23 22:00:01,15.7319562,0.0001347,53.2204,180.1218,83.5892,290.8713,0.00011671,0.00015787,0.0,0 STARLINK-4545,1 53421U 22097AK  22235.91668981  .00015787  00000-0  11671-3 0  9994,2 53421  53.2204 180.1218 0001347  83.5892 290.8713 15.73195620  1307,6727.908,91.533,350.67900000000014,348.866,0.0
53421.0,STARLINK-4545,PAYLOAD,2022-08-24 06:00:00,15.73173121,9.28e-05,53.2203,178.4742,63.8783,39.5458,0.00047839,0.00066977,0.0,0 STARLINK-4545,1 53421U 22097AK  22236.25001157  .00066977  00000-0  47839-3 0  9990,2 53421  53.2203 178.4742 0000928  63.8783  39.5458 15.73173121  2646,6727.972,91.535,350.461,349.212,0.0
53421.0,STARLINK-4545,PAYLOAD,2022-08-24 14:00:01,15.7323277,8.540000000000003e-05,53.2202,176.8231,76.5338,115.8161,-0.00015411,-0.0002222,0.0,0 STARLINK-4545,1 53421U 22097AK  22236.58334491 -.00022220  00000-0 -15411-3 0  9992,2 53421  53.2202 176.8231 0000854  76.5338 115.8161 15.73232770  1302,6727.802,91.531,350.241,349.092,0.0
53421.0,STARLINK-4545,PAYLOAD,2022-08-24 22:00:00,15.73315085,9.03e-05,53.2189,175.1713,85.7749,195.5219,-0.0020869,-0.00285178,0.0,0 STARLINK-4545,1 53421U 22097AK  22236.91667824 -.00285178  00000-0 -20869-2 0  9993,2 53421  53.2189 175.1713 0000903  85.7749 195.5219 15.73315085  1306,6727.566999999999,91.526,350.04,348.825,0.0
53421.0,STARLINK-4545,PAYLOAD,2022-08-25 06:00:02,15.7318117,0.0001151,53.2206,173.5264,71.2844,299.031,0.00035601,0.00049598,0.0,0 STARLINK-4545,1 53421U 22097AK  22237.25002315  .00049598  00000-0  35601-3 0  9992,2 53421  53.2206 173.5264 0001151  71.2844 299.0310 15.73181170  2793,6727.949000000001,91.534,350.588,349.039,0.0
53421.0,STARLINK-4545,PAYLOAD,2022-08-25 14:00:01,15.73192349,0.0001147999999999,53.2205,171.8752,81.4447,17.741,-0.00025028,-0.00035584,0.0,0 STARLINK-4545,1 53421U 22097AK  22237.58334491 -.00035584  00000-0 -25028-3 0  9995,2 53421  53.2205 171.8752 0001148  81.4447  17.7410 15.73192349  1305,6727.917,91.534,350.55400000000014,349.01,0.0
53421.0,STARLINK-4545,PAYLOAD,2022-08-25 22:00:00,15.73191535,0.0001358,53.2202,170.2261,84.3213,103.764,5.1904e-05,6.668e-05,0.0,0 STARLINK-4545,1 53421U 22097AK  22237.91667824  .00006668  00000-0  51904-4 0  9993,2 53421  53.2202 170.2261 0001358  84.3213 103.7640 15.73191535  1303,6727.919,91.534,350.6980000000001,348.871,0.0
53421.0,STARLINK-4545,PAYLOAD,2022-08-26 06:00:00,15.73174639,0.0001365999999999,53.2193,168.5786,72.8843,204.1275,0.0005247,0.00073585,0.0,0 STARLINK-4545,1 53421U 22097AK  22238.25001157  .00073585  00000-0  52470-3 0  9992,2 53421  53.2193 168.5786 0001366  72.8843 204.1275 15.73174639  2952,6727.967,91.535,350.75199999999984,348.913,0.0
53421.0,STARLINK-4545,PAYLOAD,2022-08-26 14:00:01,15.73236636,0.0001155,53.2191,166.9272,85.3897,280.6199,-0.00035054,-0.00049602,0.0,0 STARLINK-4545,1 53421U 22097AK  22238.58335648 -.00049602  00000-0 -35054-3 0  9997,2 53421  53.2191 166.9272 0001155  85.3897 280.6199 15.73236636  1304,6727.791,91.531,350.43300000000005,348.879,0.0
